*******************************************************************************
Ephemeris / WWW_USER Mon Mar 24 09:17:39 2025 Pasadena, USA      / Horizons    
*******************************************************************************
Target body name: 300163 (2006 VW139)             {source: JPL#20}
Center body name: Earth (399)                     {source: DE441}
Center-site name: Mauna Kea
*******************************************************************************
Start time      : A.D. 2018-Oct-22 04:03:00.0000 UT      
Stop  time      : A.D. 2018-Oct-22 16:09:00.0000 UT      
Step-size       : 1 minutes
*******************************************************************************
Target pole/equ : undefined
Target radii    : undefined                                                    
Center geodetic : 204.5278, 19.8260847, 4.21024   {E-lon(deg),Lat(deg),Alt(km)}
Center cylindric: 204.5278, 6006.35451, 2151.0229 {E-lon(deg),Dxy(km),Dz(km)}
Center pole/equ : ITRF93                          {East-longitude positive}
Center radii    : 6378.137, 6378.137, 6356.752 km {Equator_a, b, pole_c}       
Target primary  : Sun
Vis. interferer : MOON (R_eq= 1737.400) km        {source: DE441}
Rel. light bend : Sun                             {source: DE441}
Rel. lght bnd GM: 1.3271E+11 km^3/s^2                                          
Small-body perts: Yes                             {source: SB441-N16}
Atmos refraction: NO (AIRLESS)
RA format       : HMS
Time format     : CAL 
Calendar mode   : Mixed Julian/Gregorian
RTS-only print  : NO       
EOP file        : eop.250321.p250617                                           
EOP coverage    : DATA-BASED 1962-JAN-20 TO 2025-MAR-21. PREDICTS-> 2025-JUN-16
Units conversion: 1 au= 149597870.700 km, c= 299792.458 km/s, 1 day= 86400.0 s 
Table cut-offs 1: Elevation (-90.0deg=NO ),Airmass (>38.000=NO), Daylight (YES)
Table cut-offs 2: Solar elongation (  0.0,180.0=NO ),Local Hour Angle( 0.0=NO )
Table cut-offs 3: RA/DEC angular rate (     0.0=NO )                           
*******************************************************************************
Initial IAU76/J2000 heliocentric ecliptic osculating elements (au, days, deg.):
  EPOCH=  2457991.5 ! 2017-Aug-26.00 (TDB)         Residual RMS= .24052        
   EC= .2010729135113919   QR= 2.43581750533798    TP= 2457700.5743979034      
   OM= 83.18687361565334   W=  281.0057800900049   IN= 3.240211778004737       
  Equivalent ICRF heliocentric cartesian coordinates (au, au/d):
   X= 5.132894709524352E-01  Y= 2.513143937276953E+00  Z= 1.078150377913554E+00
  VX=-1.001562838274837E-02 VY= 3.317467852193382E-03 VZ= 2.080280624827025E-03
Asteroid physical parameters (km, seconds, rotational period in hours):        
   GM= n.a.                RAD= n.a.               ROTPER= 3240.               
   H= 16.21                G= .150                 B-V= n.a.                   
                           ALBEDO= n.a.            STYP= n.a.                  
*******************************************************************************
 Date__(UT)__HR:MN     R.A._________(ICRF)_________DEC
******************************************************
$$SOE
 2018-Oct-22 04:03 Cm  10 59 09.991578 +09 14 46.99174
 2018-Oct-22 04:04 Cm  10 59 10.035304 +09 14 46.74906
 2018-Oct-22 04:05 Cm  10 59 10.079032 +09 14 46.50638
 2018-Oct-22 04:06 Cm  10 59 10.122761 +09 14 46.26372
 2018-Oct-22 04:07 Cm  10 59 10.166492 +09 14 46.02105
 2018-Oct-22 04:08 Cm  10 59 10.210225 +09 14 45.77839
 2018-Oct-22 04:09 Cm  10 59 10.253960 +09 14 45.53574
 2018-Oct-22 04:10 Cm  10 59 10.297697 +09 14 45.29309
 2018-Oct-22 04:11 Cm  10 59 10.341435 +09 14 45.05045
 2018-Oct-22 04:12 Cm  10 59 10.385175 +09 14 44.80781
 2018-Oct-22 04:13 Cm  10 59 10.428916 +09 14 44.56518
 2018-Oct-22 04:14 Cm  10 59 10.472660 +09 14 44.32255
 2018-Oct-22 04:15 Cm  10 59 10.516405 +09 14 44.07993
 2018-Oct-22 04:16 Cm  10 59 10.560151 +09 14 43.83731
 2018-Oct-22 04:17 Nm  10 59 10.603900 +09 14 43.59470
 2018-Oct-22 04:18 Nm  10 59 10.647650 +09 14 43.35210
 2018-Oct-22 04:19 Nm  10 59 10.691402 +09 14 43.10949
 2018-Oct-22 04:20 Nm  10 59 10.735155 +09 14 42.86690
 2018-Oct-22 04:21 Nm  10 59 10.778910 +09 14 42.62431
 2018-Oct-22 04:22 Nm  10 59 10.822667 +09 14 42.38172
 2018-Oct-22 04:23 Nm  10 59 10.866425 +09 14 42.13914
 2018-Oct-22 04:24 Nm  10 59 10.910185 +09 14 41.89657
 2018-Oct-22 04:25 Nm  10 59 10.953946 +09 14 41.65400
 2018-Oct-22 04:26 Nm  10 59 10.997709 +09 14 41.41144
 2018-Oct-22 04:27 Nm  10 59 11.041474 +09 14 41.16888
 2018-Oct-22 04:28 Nm  10 59 11.085241 +09 14 40.92633
 2018-Oct-22 04:29 Nm  10 59 11.129008 +09 14 40.68378
 2018-Oct-22 04:30 Nm  10 59 11.172778 +09 14 40.44124
 2018-Oct-22 04:31 Nm  10 59 11.216549 +09 14 40.19870
 2018-Oct-22 04:32 Nm  10 59 11.260322 +09 14 39.95617
 2018-Oct-22 04:33 Nm  10 59 11.304096 +09 14 39.71365
 2018-Oct-22 04:34 Nm  10 59 11.347871 +09 14 39.47113
 2018-Oct-22 04:35 Nm  10 59 11.391649 +09 14 39.22862
 2018-Oct-22 04:36 Nm  10 59 11.435427 +09 14 38.98611
 2018-Oct-22 04:37 Nm  10 59 11.479208 +09 14 38.74361
 2018-Oct-22 04:38 Nm  10 59 11.522990 +09 14 38.50111
 2018-Oct-22 04:39 Nm  10 59 11.566773 +09 14 38.25862
 2018-Oct-22 04:40 Nm  10 59 11.610558 +09 14 38.01614
 2018-Oct-22 04:41 Nm  10 59 11.654344 +09 14 37.77366
 2018-Oct-22 04:42 Nm  10 59 11.698131 +09 14 37.53118
 2018-Oct-22 04:43 Am  10 59 11.741921 +09 14 37.28871
 2018-Oct-22 04:44 Am  10 59 11.785711 +09 14 37.04625
 2018-Oct-22 04:45 Am  10 59 11.829503 +09 14 36.80380
 2018-Oct-22 04:46 Am  10 59 11.873297 +09 14 36.56134
 2018-Oct-22 04:47 Am  10 59 11.917092 +09 14 36.31890
 2018-Oct-22 04:48 Am  10 59 11.960888 +09 14 36.07646
 2018-Oct-22 04:49 Am  10 59 12.004686 +09 14 35.83403
 2018-Oct-22 04:50 Am  10 59 12.048485 +09 14 35.59160
 2018-Oct-22 04:51 Am  10 59 12.092286 +09 14 35.34918
 2018-Oct-22 04:52 Am  10 59 12.136088 +09 14 35.10676
 2018-Oct-22 04:53 Am  10 59 12.179891 +09 14 34.86435
 2018-Oct-22 04:54 Am  10 59 12.223696 +09 14 34.62195
 2018-Oct-22 04:55 Am  10 59 12.267502 +09 14 34.37955
 2018-Oct-22 04:56 Am  10 59 12.311309 +09 14 34.13716
 2018-Oct-22 04:57 Am  10 59 12.355118 +09 14 33.89477
 2018-Oct-22 04:58 Am  10 59 12.398928 +09 14 33.65239
 2018-Oct-22 04:59 Am  10 59 12.442739 +09 14 33.41002
 2018-Oct-22 05:00 Am  10 59 12.486552 +09 14 33.16765
 2018-Oct-22 05:01 Am  10 59 12.530366 +09 14 32.92529
 2018-Oct-22 05:02 Am  10 59 12.574181 +09 14 32.68294
 2018-Oct-22 05:03 Am  10 59 12.617998 +09 14 32.44059
 2018-Oct-22 05:04 Am  10 59 12.661816 +09 14 32.19824
 2018-Oct-22 05:05 Am  10 59 12.705635 +09 14 31.95590
 2018-Oct-22 05:06 Am  10 59 12.749455 +09 14 31.71357
 2018-Oct-22 05:07 Am  10 59 12.793277 +09 14 31.47125
 2018-Oct-22 05:08  m  10 59 12.837099 +09 14 31.22893
 2018-Oct-22 05:09  m  10 59 12.880923 +09 14 30.98662
 2018-Oct-22 05:10  m  10 59 12.924749 +09 14 30.74431
 2018-Oct-22 05:11  m  10 59 12.968575 +09 14 30.50201
 2018-Oct-22 05:12  m  10 59 13.012403 +09 14 30.25971
 2018-Oct-22 05:13  m  10 59 13.056232 +09 14 30.01743
 2018-Oct-22 05:14  m  10 59 13.100062 +09 14 29.77514
 2018-Oct-22 05:15  m  10 59 13.143893 +09 14 29.53287
 2018-Oct-22 05:16  m  10 59 13.187725 +09 14 29.29060
 2018-Oct-22 05:17  m  10 59 13.231559 +09 14 29.04833
 2018-Oct-22 05:18  m  10 59 13.275394 +09 14 28.80608
 2018-Oct-22 05:19  m  10 59 13.319229 +09 14 28.56383
 2018-Oct-22 05:20  m  10 59 13.363066 +09 14 28.32158
 2018-Oct-22 05:21  m  10 59 13.406904 +09 14 28.07934
 2018-Oct-22 05:22  m  10 59 13.450743 +09 14 27.83711
 2018-Oct-22 05:23  m  10 59 13.494584 +09 14 27.59489
 2018-Oct-22 05:24  m  10 59 13.538425 +09 14 27.35267
 2018-Oct-22 05:25  m  10 59 13.582267 +09 14 27.11045
 2018-Oct-22 05:26  m  10 59 13.626111 +09 14 26.86825
 2018-Oct-22 05:27  m  10 59 13.669955 +09 14 26.62605
 2018-Oct-22 05:28  m  10 59 13.713801 +09 14 26.38385
 2018-Oct-22 05:29  m  10 59 13.757647 +09 14 26.14167
 2018-Oct-22 05:30  m  10 59 13.801495 +09 14 25.89949
 2018-Oct-22 05:31  m  10 59 13.845343 +09 14 25.65731
 2018-Oct-22 05:32  m  10 59 13.889193 +09 14 25.41514
 2018-Oct-22 05:33  m  10 59 13.933043 +09 14 25.17298
 2018-Oct-22 05:34  m  10 59 13.976895 +09 14 24.93083
 2018-Oct-22 05:35  m  10 59 14.020747 +09 14 24.68868
 2018-Oct-22 05:36  m  10 59 14.064601 +09 14 24.44654
 2018-Oct-22 05:37  m  10 59 14.108455 +09 14 24.20440
 2018-Oct-22 05:38  m  10 59 14.152311 +09 14 23.96227
 2018-Oct-22 05:39  m  10 59 14.196167 +09 14 23.72015
 2018-Oct-22 05:40  m  10 59 14.240024 +09 14 23.47803
 2018-Oct-22 05:41  m  10 59 14.283882 +09 14 23.23593
 2018-Oct-22 05:42  m  10 59 14.327741 +09 14 22.99382
 2018-Oct-22 05:43  m  10 59 14.371601 +09 14 22.75173
 2018-Oct-22 05:44  m  10 59 14.415462 +09 14 22.50964
 2018-Oct-22 05:45  m  10 59 14.459324 +09 14 22.26755
 2018-Oct-22 05:46  m  10 59 14.503186 +09 14 22.02548
 2018-Oct-22 05:47  m  10 59 14.547050 +09 14 21.78341
 2018-Oct-22 05:48  m  10 59 14.590914 +09 14 21.54134
 2018-Oct-22 05:49  m  10 59 14.634779 +09 14 21.29929
 2018-Oct-22 05:50  m  10 59 14.678645 +09 14 21.05724
 2018-Oct-22 05:51  m  10 59 14.722511 +09 14 20.81519
 2018-Oct-22 05:52  m  10 59 14.766379 +09 14 20.57316
 2018-Oct-22 05:53  m  10 59 14.810247 +09 14 20.33113
 2018-Oct-22 05:54  m  10 59 14.854116 +09 14 20.08911
 2018-Oct-22 05:55  m  10 59 14.897986 +09 14 19.84709
 2018-Oct-22 05:56  m  10 59 14.941856 +09 14 19.60508
 2018-Oct-22 05:57  m  10 59 14.985727 +09 14 19.36308
 2018-Oct-22 05:58  m  10 59 15.029599 +09 14 19.12108
 2018-Oct-22 05:59  m  10 59 15.073472 +09 14 18.87909
 2018-Oct-22 06:00  m  10 59 15.117346 +09 14 18.63711
 2018-Oct-22 06:01  m  10 59 15.161220 +09 14 18.39513
 2018-Oct-22 06:02  m  10 59 15.205094 +09 14 18.15316
 2018-Oct-22 06:03  m  10 59 15.248970 +09 14 17.91120
 2018-Oct-22 06:04  m  10 59 15.292846 +09 14 17.66924
 2018-Oct-22 06:05  m  10 59 15.336723 +09 14 17.42729
